start=new Date('2022-03-11T00:00:00.000Z').valueOf();
sats=[{"MEAN_MOTION_DOT":"0.00005913","CENTER_NAME":"EARTH","OBJECT_TYPE":"PAYLOAD","INCLINATION":"53.2186","TIME_SYSTEM":"UTC","ELEMENT_SET_NO":"999","REV_AT_EPOCH":"342","BSTAR":"0.00004646800000","TLE_LINE2":"2 51754  53.2186  53.8246 0000985  60.4688 323.9180 15.73223611  3427","DECAY_DATE":null,"SEMIMAJOR_AXIS":"6727.828","MEAN_ELEMENT_THEORY":"SGP4","LAUNCH_DATE":"2022-02-21","RA_OF_ASC_NODE":"53.8246","CLASSIFICATION_TYPE":"U","OBJECT_ID":"2022-016AS","ECCENTRICITY":"0.00009850","ARG_OF_PERICENTER":"60.4688","OBJECT_NAME":"STARLINK-3457","GP_ID":"198441652","SITE":"AFETR","REF_FRAME":"TEME","EPHEMERIS_TYPE":"0","APOAPSIS":"350.356","NORAD_CAT_ID":"51754","PERIAPSIS":"349.030","MEAN_ANOMALY":"323.9180","COUNTRY_CODE":"US","MEAN_MOTION":"15.73223611","FILE":"3354091","RCS_SIZE":"LARGE","PERIOD":"91.532","MEAN_MOTION_DDOT":"0.0000000000000","EPOCH":"2022-03-10T22:00:01.999584","TLE_LINE1":"1 51754U 22016AS  22069.91668981  .00005913  00000-0  46468-4 0  9990"},{"BSTAR":"0.00065666000000","REV_AT_EPOCH":"342","ELEMENT_SET_NO":"999","TIME_SYSTEM":"UTC","SEMIMAJOR_AXIS":"6727.927","DECAY_DATE":null,"TLE_LINE2":"2 51755  53.2184  53.8254 0001272  82.1596 301.5442 15.73188662  3423","MEAN_MOTION_DOT":"0.00092513","INCLINATION":"53.2184","OBJECT_TYPE":"PAYLOAD","CENTER_NAME":"EARTH","OBJECT_NAME":"STARLINK-3460","ARG_OF_PERICENTER":"82.1596","ECCENTRICITY":"0.00012720","SITE":"AFETR","GP_ID":"198441132","RA_OF_ASC_NODE":"53.8254","LAUNCH_DATE":"2022-02-21","MEAN_ELEMENT_THEORY":"SGP4","CLASSIFICATION_TYPE":"U","OBJECT_ID":"2022-016AT","PERIAPSIS":"348.937","REF_FRAME":"TEME","NORAD_CAT_ID":"51755","APOAPSIS":"350.648","EPHEMERIS_TYPE":"0","COUNTRY_CODE":"US","MEAN_ANOMALY":"301.5442","TLE_LINE1":"1 51755U 22016AT  22069.91668981  .00092513  00000-0  65666-3 0  9993","RCS_SIZE":"LARGE","PERIOD":"91.534","EPOCH":"2022-03-10T22:00:01.999584","MEAN_MOTION_DDOT":"0.0000000000000","FILE":"3354091","MEAN_MOTION":"15.73188662"},{"INCLINATION":"53.2188","OBJECT_TYPE":"PAYLOAD","CENTER_NAME":"EARTH","MEAN_MOTION_DOT":"-0.00009921","SEMIMAJOR_AXIS":"6727.749","DECAY_DATE":null,"TLE_LINE2":"2 51756  53.2188  53.8241 0001307  65.5024 319.4698 15.73251195  3427","BSTAR":"-0.00006620300000","REV_AT_EPOCH":"342","ELEMENT_SET_NO":"999","TIME_SYSTEM":"UTC","CLASSIFICATION_TYPE":"U","OBJECT_ID":"2022-016AU","RA_OF_ASC_NODE":"53.8241","LAUNCH_DATE":"2022-02-21","MEAN_ELEMENT_THEORY":"SGP4","SITE":"AFETR","GP_ID":"198441758","OBJECT_NAME":"STARLINK-3513","ARG_OF_PERICENTER":"65.5024","ECCENTRICITY":"0.00013070","NORAD_CAT_ID":"51756","APOAPSIS":"350.494","EPHEMERIS_TYPE":"0","REF_FRAME":"TEME","PERIAPSIS":"348.735","TLE_LINE1":"1 51756U 22016AU  22069.91668981 -.00009921  00000-0 -66203-4 0  9996","RCS_SIZE":"LARGE","MEAN_MOTION_DDOT":"0.0000000000000","PERIOD":"91.530","EPOCH":"2022-03-10T22:00:01.999584","FILE":"3354091","MEAN_MOTION":"15.73251195","COUNTRY_CODE":"US","MEAN_ANOMALY":"319.4698"},{"TIME_SYSTEM":"UTC","ELEMENT_SET_NO":"999","REV_AT_EPOCH":"342","BSTAR":"0.00038476000000","TLE_LINE2":"2 51757  53.2185  53.8219 0001024  67.0467 318.5626 15.73203865  3426","DECAY_DATE":null,"SEMIMAJOR_AXIS":"6727.884","MEAN_MOTION_DOT":"0.00053733","CENTER_NAME":"EARTH","OBJECT_TYPE":"PAYLOAD","INCLINATION":"53.2185","ECCENTRICITY":"0.00010240","ARG_OF_PERICENTER":"67.0467","OBJECT_NAME":"STARLINK-3459","GP_ID":"198441235","SITE":"AFETR","MEAN_ELEMENT_THEORY":"SGP4","LAUNCH_DATE":"2022-02-21","RA_OF_ASC_NODE":"53.8219","OBJECT_ID":"2022-016AV","CLASSIFICATION_TYPE":"U","PERIAPSIS":"349.060","REF_FRAME":"TEME","EPHEMERIS_TYPE":"0","APOAPSIS":"350.438","NORAD_CAT_ID":"51757","MEAN_ANOMALY":"318.5626","COUNTRY_CODE":"US","MEAN_MOTION":"15.73203865","FILE":"3354091","RCS_SIZE":"LARGE","EPOCH":"2022-03-10T22:00:01.999584","PERIOD":"91.533","MEAN_MOTION_DDOT":"0.0000000000000","TLE_LINE1":"1 51757U 22016AV  22069.91668981  .00053733  00000-0  38476-3 0  9995"},{"REF_FRAME":"TEME","EPHEMERIS_TYPE":"0","APOAPSIS":"350.528","NORAD_CAT_ID":"51758","PERIAPSIS":"349.064","MEAN_ANOMALY":"337.7394","COUNTRY_CODE":"US","MEAN_MOTION":"15.73187445","FILE":"3354091","RCS_SIZE":"LARGE","EPOCH":"2022-03-10T22:00:01.999584","PERIOD":"91.534","MEAN_MOTION_DDOT":"0.0000000000000","TLE_LINE1":"1 51758U 22016AW  22069.91668981  .00090910  00000-0  64552-3 0  9998","MEAN_MOTION_DOT":"0.00090910","CENTER_NAME":"EARTH","OBJECT_TYPE":"PAYLOAD","INCLINATION":"53.2188","TIME_SYSTEM":"UTC","ELEMENT_SET_NO":"999","REV_AT_EPOCH":"342","BSTAR":"0.00064552000000","TLE_LINE2":"2 51758  53.2188  53.8213 0001088  48.5174 337.7394 15.73187445  3423","DECAY_DATE":null,"SEMIMAJOR_AXIS":"6727.931","MEAN_ELEMENT_THEORY":"SGP4","LAUNCH_DATE":"2022-02-21","RA_OF_ASC_NODE":"53.8213","CLASSIFICATION_TYPE":"U","OBJECT_ID":"2022-016AW","ECCENTRICITY":"0.00010880","ARG_OF_PERICENTER":"48.5174","OBJECT_NAME":"STARLINK-3458","GP_ID":"198441334","SITE":"AFETR"},{"ARG_OF_PERICENTER":"55.3201","ECCENTRICITY":"0.00009780","OBJECT_NAME":"STARLINK-3456","SITE":"AFETR","GP_ID":"198441452","MEAN_ELEMENT_THEORY":"SGP4","RA_OF_ASC_NODE":"53.8189","LAUNCH_DATE":"2022-02-21","OBJECT_ID":"2022-016AX","CLASSIFICATION_TYPE":"U","ELEMENT_SET_NO":"999","TIME_SYSTEM":"UTC","BSTAR":"0.00043621000000","REV_AT_EPOCH":"342","TLE_LINE2":"2 51759  53.2184  53.8189 0000978  55.3201 331.6057 15.73202599  3423","SEMIMAJOR_AXIS":"6727.888","DECAY_DATE":null,"MEAN_MOTION_DOT":"0.00061051","OBJECT_TYPE":"PAYLOAD","CENTER_NAME":"EARTH","INCLINATION":"53.2184","MEAN_ANOMALY":"331.6057","COUNTRY_CODE":"US","MEAN_MOTION":"15.73202599","FILE":"3354091","TLE_LINE1":"1 51759U 22016AX  22069.91668981  .00061051  00000-0  43621-3 0  9997","RCS_SIZE":"LARGE","PERIOD":"91.533","EPOCH":"2022-03-10T22:00:01.999584","MEAN_MOTION_DDOT":"0.0000000000000","PERIAPSIS":"349.095","REF_FRAME":"TEME","EPHEMERIS_TYPE":"0","NORAD_CAT_ID":"51759","APOAPSIS":"350.411"},{"MEAN_ANOMALY":"266.1506","COUNTRY_CODE":"US","FILE":"3354091","MEAN_MOTION":"15.73183408","TLE_LINE1":"1 51768U 22017A   22069.91668981  .00081760  00000-0  58172-3 0  9994","RCS_SIZE":"LARGE","EPOCH":"2022-03-10T22:00:01.999584","PERIOD":"91.534","MEAN_MOTION_DDOT":"0.0000000000000","PERIAPSIS":"348.922","REF_FRAME":"TEME","EPHEMERIS_TYPE":"0","NORAD_CAT_ID":"51768","APOAPSIS":"350.693","ARG_OF_PERICENTER":"41.4640","ECCENTRICITY":"0.00013160","OBJECT_NAME":"STARLINK-3622","SITE":"AFWTR","GP_ID":"198441759","MEAN_ELEMENT_THEORY":"SGP4","RA_OF_ASC_NODE":"77.9219","LAUNCH_DATE":"2022-02-25","OBJECT_ID":"2022-017A","CLASSIFICATION_TYPE":"U","ELEMENT_SET_NO":"999","TIME_SYSTEM":"UTC","BSTAR":"0.00058172000000","REV_AT_EPOCH":"259","TLE_LINE2":"2 51768  53.2198  77.9219 0001316  41.4640 266.1506 15.73183408  2594","SEMIMAJOR_AXIS":"6727.942","DECAY_DATE":null,"MEAN_MOTION_DOT":"0.00081760","OBJECT_TYPE":"PAYLOAD","CENTER_NAME":"EARTH","INCLINATION":"53.2198"},{"REF_FRAME":"TEME","NORAD_CAT_ID":"51769","APOAPSIS":"350.683","EPHEMERIS_TYPE":"0","PERIAPSIS":"348.935","COUNTRY_CODE":"US","MEAN_ANOMALY":"258.2126","TLE_LINE1":"1 51769U 22017B   22069.91668981  .00083437  00000-0  59346-3 0  9992","RCS_SIZE":"LARGE","EPOCH":"2022-03-10T22:00:01.999584","PERIOD":"91.534","MEAN_MOTION_DDOT":"0.0000000000000","FILE":"3354091","MEAN_MOTION":"15.73182790","MEAN_MOTION_DOT":"0.00083437","INCLINATION":"53.2195","OBJECT_TYPE":"PAYLOAD","CENTER_NAME":"EARTH","BSTAR":"0.00059346000000","REV_AT_EPOCH":"258","ELEMENT_SET_NO":"999","TIME_SYSTEM":"UTC","SEMIMAJOR_AXIS":"6727.944","DECAY_DATE":null,"TLE_LINE2":"2 51769  53.2195  77.9187 0001299  50.6890 258.2126 15.73182790  2587","RA_OF_ASC_NODE":"77.9187","LAUNCH_DATE":"2022-02-25","MEAN_ELEMENT_THEORY":"SGP4","OBJECT_ID":"2022-017B","CLASSIFICATION_TYPE":"U","OBJECT_NAME":"STARLINK-3621","ARG_OF_PERICENTER":"50.6890","ECCENTRICITY":"0.00012990","SITE":"AFWTR","GP_ID":"198441236"},{"PERIAPSIS":"348.976","REF_FRAME":"TEME","EPHEMERIS_TYPE":"0","NORAD_CAT_ID":"51770","APOAPSIS":"350.648","MEAN_ANOMALY":"249.8740","COUNTRY_CODE":"US","MEAN_MOTION":"15.73181815","FILE":"3354091","TLE_LINE1":"1 51770U 22017C   22069.91668981  .00072577  00000-0  51748-3 0  9995","RCS_SIZE":"LARGE","MEAN_MOTION_DDOT":"0.0000000000000","PERIOD":"91.534","EPOCH":"2022-03-10T22:00:01.999584","ELEMENT_SET_NO":"999","TIME_SYSTEM":"UTC","BSTAR":"0.00051748000000","REV_AT_EPOCH":"258","TLE_LINE2":"2 51770  53.2197  77.9209 0001242  58.4050 249.8740 15.73181815  2583","SEMIMAJOR_AXIS":"6727.947","DECAY_DATE":null,"MEAN_MOTION_DOT":"0.00072577","OBJECT_TYPE":"PAYLOAD","CENTER_NAME":"EARTH","INCLINATION":"53.2197","ARG_OF_PERICENTER":"58.4050","ECCENTRICITY":"0.00012420","OBJECT_NAME":"STARLINK-3612","SITE":"AFWTR","GP_ID":"198441335","MEAN_ELEMENT_THEORY":"SGP4","RA_OF_ASC_NODE":"77.9209","LAUNCH_DATE":"2022-02-25","OBJECT_ID":"2022-017C","CLASSIFICATION_TYPE":"U"},{"REV_AT_EPOCH":"258","BSTAR":"0.00038478000000","TIME_SYSTEM":"UTC","ELEMENT_SET_NO":"999","DECAY_DATE":null,"SEMIMAJOR_AXIS":"6727.894","TLE_LINE2":"2 51771  53.2196  77.9177 0001400  48.6342 260.8987 15.73200582  2587","MEAN_MOTION_DOT":"0.00053729","INCLINATION":"53.2196","CENTER_NAME":"EARTH","OBJECT_TYPE":"PAYLOAD","OBJECT_NAME":"STARLINK-3614","ECCENTRICITY":"0.00014000","ARG_OF_PERICENTER":"48.6342","GP_ID":"198441453","SITE":"AFWTR","LAUNCH_DATE":"2022-02-25","RA_OF_ASC_NODE":"77.9177","MEAN_ELEMENT_THEORY":"SGP4","CLASSIFICATION_TYPE":"U","OBJECT_ID":"2022-017D","PERIAPSIS":"348.817","REF_FRAME":"TEME","APOAPSIS":"350.700","NORAD_CAT_ID":"51771","EPHEMERIS_TYPE":"0","COUNTRY_CODE":"US","MEAN_ANOMALY":"260.8987","EPOCH":"2022-03-10T22:00:01.999584","RCS_SIZE":"LARGE","PERIOD":"91.533","MEAN_MOTION_DDOT":"0.0000000000000","TLE_LINE1":"1 51771U 22017D   22069.91668981  .00053729  00000-0  38478-3 0  9999","FILE":"3354091","MEAN_MOTION":"15.73200582"}];
